HULIANWANG DIGUI-17     
1 62977U 25030G   26062.93398808 -.00000084  00000+0  86798-4 0  9999
2 62977  50.0047 253.0697 0000736 152.5180 207.5731 13.29338121 51867
HULIANWANG DIGUI-18     
1 62978U 25030H   26062.92561483 -.00000091  00000+0  70955-4 0  9996
2 62978  50.0052 253.0363 0000782 155.4368 204.6542 13.29338164 51860
HULIANWANG DIGUI-19     
1 62979U 25030J   26062.95882898 -.00000086  00000+0  80932-4 0  9996
2 62979  50.0037 253.1653 0000797 148.8031 211.2888 13.29341228 51868
HULIANWANG DIGUI-20     
1 63687U 25086A   26062.93721660  .00000051  00000+0  85715-4 0  9996
2 63687  86.5125 348.5729 0001705  92.1747 267.9582 13.24420043 40949
HULIANWANG DIGUI-21     
1 63688U 25086B   26062.94471039  .00000058  00000+0  10018-3 0  9990
2 63688  86.5153 348.5993 0001591  94.7900 265.3416 13.24421624 40939
HULIANWANG DIGUI-22     
1 63689U 25086C   26062.95227431  .00000078  00000+0  14645-3 0  9999
2 63689  86.5118 348.5003 0001780  92.4048 267.7290 13.24421332 40933
HULIANWANG DIGUI-23     
1 63690U 25086D   26062.96733306  .00000090  00000+0  17639-3 0  9995
2 63690  86.5160 348.6312 0001730  88.4138 271.7194 13.24422116 40935
HULIANWANG DIGUI-24     
1 63691U 25086E   26062.97494334  .00000082  00000+0  15674-3 0  9990
2 63691  86.5167 348.6552 0001757  92.6578 267.4758 13.24420231 40937
HULIANWANG DIGUI-25     
1 63692U 25086F   26062.98247670  .00000072  00000+0  13462-3 0  9993
2 63692  86.5106 348.4753 0001654  91.4075 268.7249 13.24421672 40936
HULIANWANG DIGUI-26     
1 63693U 25086G   26062.95970397  .00000075  00000+0  13996-3 0  9995
2 63693  86.5154 348.6088 0001725  97.0241 263.1090 13.24421106 40934
HULIANWANG DIGUI-27     
1 63694U 25086H   26062.99010848  .00000059  00000+0  10269-3 0  9998
2 63694  86.5115 348.5072 0001759  91.9499 268.1836 13.24420060 40930
HULIANWANG DIGUI-28     
1 63695U 25086J   26062.92959424  .00000052  00000+0  85918-4 0  9991
2 63695  86.5079 348.4325 0001749  92.0302 268.1032 13.24421379 40925
HULIANWANG DIGUI-29     
1 63696U 25086K   26062.92211682  .00000053  00000+0  89530-4 0  9994
2 63696  86.5107 348.5147 0001630  92.3289 267.8032 13.24420235 40923
HULIANWANG DIGUI-30     
1 64283U 25121A   26062.92948980  .00000027  00000+0  28481-4 0  9994
2 64283  86.4945  49.0694 0001997  79.2519 280.8840 13.24423338 36228
HULIANWANG DIGUI-31     
1 64284U 25121B   26062.92215363  .00000045  00000+0  69806-4 0  9993
2 64284  86.4966  49.1221 0002025  79.4139 280.7223 13.24419556 36223
HULIANWANG DIGUI-32     
1 64285U 25121C   26062.91424890  .00000069  00000+0  12549-3 0  9997
2 64285  86.4907  48.9550 0002008  81.4462 278.6900 13.24425260 36221
