[{"OBJECT_NAME":"HULIANWANG DIGUI-17","OBJECT_ID":"2025-030G","EPOCH":"2026-03-03T22:24:56.570112","MEAN_MOTION":13.29338121,"ECCENTRICITY":7.361e-5,"INCLINATION":50.0047,"RA_OF_ASC_NODE":253.0697,"ARG_OF_PERICENTER":152.518,"MEAN_ANOMALY":207.5731,"EPHEMERIS_TYPE":0,"CLASSIFICATION_TYPE":"U","NORAD_CAT_ID":62977,"ELEMENT_SET_NO":999,"REV_AT_EPOCH":5186,"BSTAR":8.6798368e-5,"MEAN_MOTION_DOT":-8.4e-7,"MEAN_MOTION_DDOT":0},{"OBJECT_NAME":"HULIANWANG DIGUI-18","OBJECT_ID":"2025-030H","EPOCH":"2026-03-03T22:12:53.121312","MEAN_MOTION":13.29338164,"ECCENTRICITY":7.82e-5,"INCLINATION":50.0052,"RA_OF_ASC_NODE":253.0363,"ARG_OF_PERICENTER":155.4368,"MEAN_ANOMALY":204.6542,"EPHEMERIS_TYPE":0,"CLASSIFICATION_TYPE":"U","NORAD_CAT_ID":62978,"ELEMENT_SET_NO":999,"REV_AT_EPOCH":5186,"BSTAR":7.0954632e-5,"MEAN_MOTION_DOT":-9.1e-7,"MEAN_MOTION_DDOT":0},{"OBJECT_NAME":"HULIANWANG DIGUI-19","OBJECT_ID":"2025-030J","EPOCH":"2026-03-03T23:00:42.823872","MEAN_MOTION":13.29341228,"ECCENTRICITY":7.971e-5,"INCLINATION":50.0037,"RA_OF_ASC_NODE":253.1653,"ARG_OF_PERICENTER":148.8031,"MEAN_ANOMALY":211.2888,"EPHEMERIS_TYPE":0,"CLASSIFICATION_TYPE":"U","NORAD_CAT_ID":62979,"ELEMENT_SET_NO":999,"REV_AT_EPOCH":5186,"BSTAR":8.0932385e-5,"MEAN_MOTION_DOT":-8.6e-7,"MEAN_MOTION_DDOT":0},{"OBJECT_NAME":"HULIANWANG DIGUI-20","OBJECT_ID":"2025-086A","EPOCH":"2026-03-03T22:29:35.514240","MEAN_MOTION":13.24420043,"ECCENTRICITY":0.00017057,"INCLINATION":86.5125,"RA_OF_ASC_NODE":348.5729,"ARG_OF_PERICENTER":92.1747,"MEAN_ANOMALY":267.9582,"EPHEMERIS_TYPE":0,"CLASSIFICATION_TYPE":"U","NORAD_CAT_ID":63687,"ELEMENT_SET_NO":999,"REV_AT_EPOCH":4094,"BSTAR":8.5715285e-5,"MEAN_MOTION_DOT":5.1e-7,"MEAN_MOTION_DDOT":0},{"OBJECT_NAME":"HULIANWANG DIGUI-21","OBJECT_ID":"2025-086B","EPOCH":"2026-03-03T22:40:22.977696","MEAN_MOTION":13.24421624,"ECCENTRICITY":0.00015914,"INCLINATION":86.5153,"RA_OF_ASC_NODE":348.5993,"ARG_OF_PERICENTER":94.79,"MEAN_ANOMALY":265.3416,"EPHEMERIS_TYPE":0,"CLASSIFICATION_TYPE":"U","NORAD_CAT_ID":63688,"ELEMENT_SET_NO":999,"REV_AT_EPOCH":4093,"BSTAR":0.00010017803,"MEAN_MOTION_DOT":5.8e-7,"MEAN_MOTION_DDOT":0},{"OBJECT_NAME":"HULIANWANG DIGUI-22","OBJECT_ID":"2025-086C","EPOCH":"2026-03-03T22:51:16.500384","MEAN_MOTION":13.24421332,"ECCENTRICITY":0.00017807,"INCLINATION":86.5118,"RA_OF_ASC_NODE":348.5003,"ARG_OF_PERICENTER":92.4048,"MEAN_ANOMALY":267.729,"EPHEMERIS_TYPE":0,"CLASSIFICATION_TYPE":"U","NORAD_CAT_ID":63689,"ELEMENT_SET_NO":999,"REV_AT_EPOCH":4093,"BSTAR":0.00014645161,"MEAN_MOTION_DOT":7.8e-7,"MEAN_MOTION_DDOT":0},{"OBJECT_NAME":"HULIANWANG DIGUI-23","OBJECT_ID":"2025-086D","EPOCH":"2026-03-03T23:12:57.576384","MEAN_MOTION":13.24422116,"ECCENTRICITY":0.00017303,"INCLINATION":86.516,"RA_OF_ASC_NODE":348.6312,"ARG_OF_PERICENTER":88.4138,"MEAN_ANOMALY":271.7194,"EPHEMERIS_TYPE":0,"CLASSIFICATION_TYPE":"U","NORAD_CAT_ID":63690,"ELEMENT_SET_NO":999,"REV_AT_EPOCH":4093,"BSTAR":0.00017638543,"MEAN_MOTION_DOT":9.0e-7,"MEAN_MOTION_DDOT":0},{"OBJECT_NAME":"HULIANWANG DIGUI-24","OBJECT_ID":"2025-086E","EPOCH":"2026-03-03T23:23:55.104576","MEAN_MOTION":13.24420231,"ECCENTRICITY":0.00017572,"INCLINATION":86.5167,"RA_OF_ASC_NODE":348.6552,"ARG_OF_PERICENTER":92.6578,"MEAN_ANOMALY":267.4758,"EPHEMERIS_TYPE":0,"CLASSIFICATION_TYPE":"U","NORAD_CAT_ID":63691,"ELEMENT_SET_NO":999,"REV_AT_EPOCH":4093,"BSTAR":0.0001567376,"MEAN_MOTION_DOT":8.2e-7,"MEAN_MOTION_DDOT":0},{"OBJECT_NAME":"HULIANWANG DIGUI-25","OBJECT_ID":"2025-086F","EPOCH":"2026-03-03T23:34:45.986880","MEAN_MOTION":13.24421672,"ECCENTRICITY":0.00016541,"INCLINATION":86.5106,"RA_OF_ASC_NODE":348.4753,"ARG_OF_PERICENTER":91.4075,"MEAN_ANOMALY":268.7249,"EPHEMERIS_TYPE":0,"CLASSIFICATION_TYPE":"U","NORAD_CAT_ID":63692,"ELEMENT_SET_NO":999,"REV_AT_EPOCH":4093,"BSTAR":0.00013461994,"MEAN_MOTION_DOT":7.2e-7,"MEAN_MOTION_DDOT":0},{"OBJECT_NAME":"HULIANWANG DIGUI-26","OBJECT_ID":"2025-086G","EPOCH":"2026-03-03T23:01:58.423008","MEAN_MOTION":13.24421106,"ECCENTRICITY":0.0001725,"INCLINATION":86.5154,"RA_OF_ASC_NODE":348.6088,"ARG_OF_PERICENTER":97.0241,"MEAN_ANOMALY":263.109,"EPHEMERIS_TYPE":0,"CLASSIFICATION_TYPE":"U","NORAD_CAT_ID":63693,"ELEMENT_SET_NO":999,"REV_AT_EPOCH":4093,"BSTAR":0.00013996215,"MEAN_MOTION_DOT":7.5e-7,"MEAN_MOTION_DDOT":0},{"OBJECT_NAME":"HULIANWANG DIGUI-27","OBJECT_ID":"2025-086H","EPOCH":"2026-03-03T23:45:45.372672","MEAN_MOTION":13.2442006,"ECCENTRICITY":0.00017594,"INCLINATION":86.5115,"RA_OF_ASC_NODE":348.5072,"ARG_OF_PERICENTER":91.9499,"MEAN_ANOMALY":268.1836,"EPHEMERIS_TYPE":0,"CLASSIFICATION_TYPE":"U","NORAD_CAT_ID":63694,"ELEMENT_SET_NO":999,"REV_AT_EPOCH":4093,"BSTAR":0.00010269446,"MEAN_MOTION_DOT":5.9e-7,"MEAN_MOTION_DDOT":0},{"OBJECT_NAME":"HULIANWANG DIGUI-28","OBJECT_ID":"2025-086J","EPOCH":"2026-03-03T22:18:36.942336","MEAN_MOTION":13.24421379,"ECCENTRICITY":0.00017494,"INCLINATION":86.5079,"RA_OF_ASC_NODE":348.4325,"ARG_OF_PERICENTER":92.0302,"MEAN_ANOMALY":268.1032,"EPHEMERIS_TYPE":0,"CLASSIFICATION_TYPE":"U","NORAD_CAT_ID":63695,"ELEMENT_SET_NO":999,"REV_AT_EPOCH":4092,"BSTAR":8.5917539e-5,"MEAN_MOTION_DOT":5.2e-7,"MEAN_MOTION_DDOT":0},{"OBJECT_NAME":"HULIANWANG DIGUI-29","OBJECT_ID":"2025-086K","EPOCH":"2026-03-03T22:07:50.893248","MEAN_MOTION":13.24420235,"ECCENTRICITY":0.00016301,"INCLINATION":86.5107,"RA_OF_ASC_NODE":348.5147,"ARG_OF_PERICENTER":92.3289,"MEAN_ANOMALY":267.8032,"EPHEMERIS_TYPE":0,"CLASSIFICATION_TYPE":"U","NORAD_CAT_ID":63696,"ELEMENT_SET_NO":999,"REV_AT_EPOCH":4092,"BSTAR":8.9529926e-5,"MEAN_MOTION_DOT":5.3e-7,"MEAN_MOTION_DDOT":0},{"OBJECT_NAME":"HULIANWANG DIGUI-30","OBJECT_ID":"2025-121A","EPOCH":"2026-03-03T22:18:27.918720","MEAN_MOTION":13.24423338,"ECCENTRICITY":0.00019974,"INCLINATION":86.4945,"RA_OF_ASC_NODE":49.0694,"ARG_OF_PERICENTER":79.2519,"MEAN_ANOMALY":280.884,"EPHEMERIS_TYPE":0,"CLASSIFICATION_TYPE":"U","NORAD_CAT_ID":64283,"ELEMENT_SET_NO":999,"REV_AT_EPOCH":3622,"BSTAR":2.8480598e-5,"MEAN_MOTION_DOT":2.7e-7,"MEAN_MOTION_DDOT":0},{"OBJECT_NAME":"HULIANWANG DIGUI-31","OBJECT_ID":"2025-121B","EPOCH":"2026-03-03T22:07:54.073632","MEAN_MOTION":13.24419556,"ECCENTRICITY":0.00020258,"INCLINATION":86.4966,"RA_OF_ASC_NODE":49.1221,"ARG_OF_PERICENTER":79.4139,"MEAN_ANOMALY":280.7223,"EPHEMERIS_TYPE":0,"CLASSIFICATION_TYPE":"U","NORAD_CAT_ID":64284,"ELEMENT_SET_NO":999,"REV_AT_EPOCH":3622,"BSTAR":6.980551e-5,"MEAN_MOTION_DOT":4.5e-7,"MEAN_MOTION_DDOT":0},{"OBJECT_NAME":"HULIANWANG DIGUI-32","OBJECT_ID":"2025-121C","EPOCH":"2026-03-03T21:56:31.104960","MEAN_MOTION":13.2442526,"ECCENTRICITY":0.00020083,"INCLINATION":86.4907,"RA_OF_ASC_NODE":48.955,"ARG_OF_PERICENTER":81.4462,"MEAN_ANOMALY":278.69,"EPHEMERIS_TYPE":0,"CLASSIFICATION_TYPE":"U","NORAD_CAT_ID":64285,"ELEMENT_SET_NO":999,"REV_AT_EPOCH":3622,"BSTAR":0.00012549111,"MEAN_MOTION_DOT":6.9e-7,"MEAN_MOTION_DDOT":0}]
